TDRS 3                  
1 19548U 88091B   22224.20188150 -.00000312  00000+0  00000+0 0  9995
2 19548  13.6741 350.8776 0032839 328.3525  25.2866  1.00272176111299
HST                     
1 20580U 90037B   22225.18858388  .00001761  00000+0  92741-4 0  9997
2 20580  28.4691 152.8122 0002387 287.0186 216.0583 15.10751138575071
TDRS 5                  
1 21639U 91054B   22225.15889103  .00000069  00000+0  00000+0 0  9991
2 21639  14.2331   4.1989 0023240   4.6250 202.2825  1.00269712113628
TDRS 6                  
1 22314U 93003B   22224.84167542 -.00000310  00000+0  00000+0 0  9999
2 22314  14.1342   7.4461 0011760 125.8369  85.1720  1.00275235108298
TDRS 7                  
1 23613U 95035B   22224.74535646 -.00000216  00000+0  00000+0 0  9997
2 23613  13.9560 358.1401 0027898  57.7530 258.4342  1.00273601 99167
ISS (ZARYA)             
1 25544U 98067A   22225.13271216  .00006462  00000+0  12042-3 0  9995
2 25544  51.6425  54.4836 0005702 116.2033 348.6352 15.50159232354012
LANDSAT 7               
1 25682U 99020A   22225.18581220  .00000181  00000+0  47178-4 0  9993
2 25682  97.9753 271.1049 0001141  81.3403 278.7936 14.59783314240840
TERRA                   
1 25994U 99068A   22225.18746531  .00000206  00000+0  55554-4 0  9994
2 25994  98.1340 295.7985 0001649  91.4895 293.5632 14.57135472204888
TDRS 8                  
1 26388U 00034A   22224.99355027 -.00000251  00000+0  00000+0 0  9993
2 26388  10.4537  42.1550 0019461 352.4572  13.8058  1.00269391 81099
TIMED                   
1 26998U 01055B   22224.82543342  .00000586  00000+0  66635-4 0  9996
2 26998  74.0727 167.3332 0001214 305.7806  54.3262 14.88745325121390
TDRS 9                  
1 27389U 02011A   22225.11768875 -.00000306  00000+0  00000+0 0  9997
2 27389   9.1364  60.2955 0022177 301.1929 300.1837  1.00271394 76355
AQUA                    
1 27424U 02022A   22225.14943750  .00000376  00000+0  93086-4 0  9996
2 27424  98.2489 166.5102 0002012  73.8520  51.4283 14.57352009 78488
TDRS 10                 
1 27566U 02055A   22225.16358125  .00000071  00000+0  00000+0 0  9998
2 27566   8.3028  49.6440 0006836 354.2502 165.4624  1.00269518 72144
SORCE                   
1 27651U 03004A   22225.17106182  .00000713  00000+0  86253-4 0  9995
2 27651  39.9946 260.7711 0022564 154.0682 206.1242 14.90030606 61555
AURA                    
1 28376U 04026A   22224.80528430  .00000395  00000+0  97658-4 0  9995
2 28376  98.2107 167.3363 0001570  82.9054 277.2323 14.57111119961435
SWIFT                   
1 28485U 04047A   22224.78450154  .00002816  00000+0  15420-3 0  9999
2 28485  20.5564 274.8613 0010213 293.7490  66.1873 15.06695894972139
THEMIS A                
1 30580U 07004A   22223.77753143 -.00000610  00000+0  16748-1 0  9999
2 30580  13.9148 339.9292 8381210 176.6372 201.5764  0.87836217 28924
THEMIS D                
1 30797U 07004D   22224.77605681 -.00000541  00000+0  00000+0 0  9998
2 30797   9.7122 329.1698 8339541 190.6152 168.6613  0.87838488 53142
THEMIS E                
1 30798U 07004E   22224.77614400 -.00000556  00000+0  00000+0 0  9994
2 30798  10.6129 342.6478 8328138 179.2451 158.3201  0.87841915 53566
AIM                     
1 31304U 07015A   22224.81891197  .00006090  00000+0  29968-3 0  9991
2 31304  97.8529 146.1485 0005079 161.5104 198.6315 15.18387100839749
FGRST (GLAST)           
1 33053U 08029A   22225.11608006  .00001445  00000+0  64346-4 0  9998
2 33053  25.5819 140.7566 0012282 116.5530 243.6265 15.12318240782508
WISE                    
1 36119U 09071A   22224.75653539  .00005327  00000+0  16318-3 0  9990
2 36119  97.2360 258.0689 0004076 101.1832 258.9870 15.34214348704139
TDRS 11                 
1 39070U 13004A   22224.79454330  .00000064  00000+0  00000+0 0  9992
2 39070   2.8811 347.6343 0006256  79.0345   6.2143  1.00275373 34908
TDRS 12                 
1 39504U 14004A   22224.85200278 -.00000284  00000+0  00000+0 0  9997
2 39504   3.8126 348.2573 0004284 136.8975 101.7719  1.00278602 30197
GPM-CORE                
1 39574U 14009C   22224.81152286  .00015179  00000+0  22121-3 0  9990
2 39574  65.0030 356.4617 0009924 277.1880  82.8137 15.55859559480371
MMS 1                   
1 40482U 15011A   22224.96116898 -.00002151  00000+0  00000+0 0  9994
2 40482  31.5417 101.5694 8758820  56.7219 118.7089  0.28354534 13456
MMS 2                   
1 40483U 15011B   22224.97141204 -.00002150  00000+0  00000+0 0  9994
2 40483  31.4735 101.3501 8754770  56.8924 119.6949  0.28338239 13435
MMS 3                   
1 40484U 15011C   22224.97413194 -.00002150  00000+0  00000+0 0  9995
2 40484  31.5374 101.5828 8758753  56.7093 120.0527  0.28354236 13434
MMS 4                   
1 40485U 15011D   22224.97555556 -.00002149  00000+0  00000+0 0  9993
2 40485  31.4721 101.3535 8754020  56.8965 120.0971  0.28338251 13437
TDRS 13                 
1 42915U 17047A   22224.68353721 -.00000114  00000+0  00000+0 0  9992
2 42915   4.3989 333.9854 0018958 122.5308  99.1737  1.00271522 18266
JPSS-1                  
1 43013U 17073A   22225.10407884  .00000008  00000+0  24597-4 0  9992
2 43013  98.7173 162.7774 0000728  84.4726 275.6533 14.19565181245261
